ONEWEB-0176             
1 48210U 21031A   24337.88644919  .00000084  00000+0  19120-3 0  9997
2 48210  87.9022  41.3170 0001786  99.6147 260.5185 13.14502341174574
ONEWEB-0184             
1 48211U 21031B   24337.47890345  .00000243  00000+0  62208-3 0  9991
2 48211  87.9018  41.3755 0000952  76.6927 283.4309 13.14505172174492
ONEWEB-0179             
1 48212U 21031C   24337.90548095 -.00000172  00000+0 -49885-3 0  9991
2 48212  87.9036  41.3002 0001780 103.2638 256.8690 13.14502593174596
ONEWEB-0180             
1 48213U 21031D   24337.48205261  .00000339  00000+0  87897-3 0  9998
2 48213  87.9021  41.3777 0001509 103.6685 256.4612 13.14501528174424
ONEWEB-0218             
1 48214U 21031E   24337.88486366  .00000053  00000+0  10817-3 0  9991
2 48214  87.9022  41.2990 0000732  94.0173 266.1040 13.14502507174638
ONEWEB-0209             
1 48215U 21031F   24337.87376947  .00000231  00000+0  58728-3 0  9995
2 48215  87.9018  41.3390 0001777 106.3022 253.8303 13.14503137174634
ONEWEB-0198             
1 48216U 21031G   24337.47731072  .00000283  00000+0  72885-3 0  9993
2 48216  87.9021  41.4214 0001424 106.2727 253.8559 13.14501613174691
ONEWEB-0189             
1 48217U 21031H   24337.41387879  .00000248  00000+0  63392-3 0  9994
2 48217  87.9033  41.4089 0001351 110.9304 249.1970 13.14501662174427
